[{"OBJECT_NAME":"STARLINK-34144","OBJECT_ID":"2025-099G","EPOCH":"2026-03-09T14:50:33.174528","MEAN_MOTION":15.27629676,"ECCENTRICITY":0.00013648,"INCLINATION":43.003,"RA_OF_ASC_NODE":176.7816,"ARG_OF_PERICENTER":294.1611,"MEAN_ANOMALY":65.9098,"EPHEMERIS_TYPE":0,"CLASSIFICATION_TYPE":"U","NORAD_CAT_ID":63958,"ELEMENT_SET_NO":999,"REV_AT_EPOCH":4732,"BSTAR":0.0015836295,"MEAN_MOTION_DOT":0.0004364,"MEAN_MOTION_DDOT":0},{"OBJECT_NAME":"OBJECT V","OBJECT_ID":"2025-155V","EPOCH":"2026-03-09T20:35:20.067360","MEAN_MOTION":15.27583301,"ECCENTRICITY":0.00080353,"INCLINATION":97.4485,"RA_OF_ASC_NODE":37.249,"ARG_OF_PERICENTER":152.8264,"MEAN_ANOMALY":207.3397,"EPHEMERIS_TYPE":0,"CLASSIFICATION_TYPE":"U","NORAD_CAT_ID":64895,"ELEMENT_SET_NO":999,"REV_AT_EPOCH":6557,"BSTAR":0.00051002361,"MEAN_MOTION_DOT":0.00013705,"MEAN_MOTION_DDOT":0}]
