STARLINK-34144          
1 63958U 25099G   26068.61843951  .00043640  00000+0  15836-2 0  9996
2 63958  43.0030 176.7816 0001365 294.1611  65.9098 15.27629676 47322
2025-155V               
1 64895U 25155V   26068.85787115  .00013705  00000+0  51002-3 0  9990
2 64895  97.4485  37.2490 0008035 152.8264 207.3397 15.27583301 65579
